KUIPER-00210            
1 67146U 25301P   26004.82620358  .00037284  00000+0  10975-2 0  9998
2 67146  51.8610  13.9647 0010317 179.9332 180.1657 15.34657849  4085
KUIPER-00221            
1 67147U 25301Q   26004.80664803  .00032083  00000+0  90403-3 0  9997
2 67147  51.8727  13.8488 0004977 141.4979 218.6363 15.36139608  3915
KUIPER-00232            
1 67148U 25301R   26004.66418017  .00005142  00000+0  15044-3 0  9990
2 67148  51.8741  14.3953 0002308  72.0652 288.0586 15.36984147  3899
KUIPER-00241            
1 67149U 25301S   26004.66998211  .00033463  00000+0  92891-3 0  9992
2 67149  51.8746  14.4318 0002743 114.3093 245.8180 15.36591947  4224
KUIPER-00245            
1 67150U 25301T   26004.83335648 -.00418657  00000+0 -13014-1 0  9994
2 67150  51.8739  13.7373 0006275 150.1310 345.8169 15.34495075  3405
KUIPER-00246            
1 67151U 25301U   26004.80374454  .00016741  00000+0  47489-3 0  9991
2 67151  51.8741  13.8291 0003996 139.1857 220.9429 15.36336661  3936
KUIPER-00247            
1 67152U 25301V   26004.43779733  .00001708  00000+0  62035-4 0  9992
2 67152  51.8630  15.8644 0011424 181.0995 178.9967 15.34242649  3852
KUIPER-00248            
1 67153U 25301W   26004.81973549  .00024081  00000+0  70134-3 0  9993
2 67153  51.8687  13.9317 0008862 169.9897 190.1266 15.35236216  4087
KUIPER-00249            
1 67154U 25301X   26004.81757211  .00025976  00000+0  75231-3 0  9997
2 67154  51.8665  13.9157 0008368 166.7861 193.3345 15.35372568  3918
KUIPER-00250            
1 67155U 25301Y   26004.81105845  .00020846  00000+0  59632-3 0  9996
2 67155  51.8725  13.8777 0006545 155.7970 204.3325 15.35907543  3948
KUIPER-00251            
1 67156U 25301Z   26004.81883390  .00026291  00000+0  76982-3 0  9992
2 67156  51.8676  13.9248 0009052 164.3987 195.7280 15.35015007  4105
KUIPER-00252            
1 67157U 25301AA  26004.62977010  .00023863  00000+0  70740-3 0  9993
2 67157  51.8664  14.9057 0009926 175.9914 184.1153 15.34675323  3887
