CCSDS_OMM_VERS = 2.0
CREATION_DATE  = 
ORIGINATOR     = 

OBJECT_NAME    = KUIPER-00210
OBJECT_ID      = 2025-301P
CENTER_NAME    = EARTH
REF_FRAME      = TEME
TIME_SYSTEM    = UTC
MEAN_ELEMENT_THEORY = SGP/SGP4

EPOCH          = 2026-01-04T19:49:43.989312
MEAN_MOTION    = 15.34657849
ECCENTRICITY   = .0010317
INCLINATION    = 51.8610
RA_OF_ASC_NODE = 13.9647
ARG_OF_PERICENTER = 179.9332
MEAN_ANOMALY   = 180.1657

EPHEMERIS_TYPE = 0
CLASSIFICATION_TYPE = U
NORAD_CAT_ID   = 67146
ELEMENT_SET_NO = 999
REV_AT_EPOCH   = 408
BSTAR          = .10975E-2
MEAN_MOTION_DOT = .37284E-3
MEAN_MOTION_DDOT = 0

CCSDS_OMM_VERS = 2.0
CREATION_DATE  = 
ORIGINATOR     = 

OBJECT_NAME    = KUIPER-00221
OBJECT_ID      = 2025-301Q
CENTER_NAME    = EARTH
REF_FRAME      = TEME
TIME_SYSTEM    = UTC
MEAN_ELEMENT_THEORY = SGP/SGP4

EPOCH          = 2026-01-04T19:21:34.389792
MEAN_MOTION    = 15.36139608
ECCENTRICITY   = .0004977
INCLINATION    = 51.8727
RA_OF_ASC_NODE = 13.8488
ARG_OF_PERICENTER = 141.4979
MEAN_ANOMALY   = 218.6363

EPHEMERIS_TYPE = 0
CLASSIFICATION_TYPE = U
NORAD_CAT_ID   = 67147
ELEMENT_SET_NO = 999
REV_AT_EPOCH   = 391
BSTAR          = .90403E-3
MEAN_MOTION_DOT = .32083E-3
MEAN_MOTION_DDOT = 0

CCSDS_OMM_VERS = 2.0
CREATION_DATE  = 
ORIGINATOR     = 

OBJECT_NAME    = KUIPER-00232
OBJECT_ID      = 2025-301R
CENTER_NAME    = EARTH
REF_FRAME      = TEME
TIME_SYSTEM    = UTC
MEAN_ELEMENT_THEORY = SGP/SGP4

EPOCH          = 2026-01-04T15:56:25.166688
MEAN_MOTION    = 15.36984147
ECCENTRICITY   = .0002308
INCLINATION    = 51.8741
RA_OF_ASC_NODE = 14.3953
ARG_OF_PERICENTER = 72.0652
MEAN_ANOMALY   = 288.0586

EPHEMERIS_TYPE = 0
CLASSIFICATION_TYPE = U
NORAD_CAT_ID   = 67148
ELEMENT_SET_NO = 999
REV_AT_EPOCH   = 389
BSTAR          = .15044E-3
MEAN_MOTION_DOT = .5142E-4
MEAN_MOTION_DDOT = 0

CCSDS_OMM_VERS = 2.0
CREATION_DATE  = 
ORIGINATOR     = 

OBJECT_NAME    = KUIPER-00241
OBJECT_ID      = 2025-301S
CENTER_NAME    = EARTH
REF_FRAME      = TEME
TIME_SYSTEM    = UTC
MEAN_ELEMENT_THEORY = SGP/SGP4

EPOCH          = 2026-01-04T16:04:46.454304
MEAN_MOTION    = 15.36591947
ECCENTRICITY   = .0002743
INCLINATION    = 51.8746
RA_OF_ASC_NODE = 14.4318
ARG_OF_PERICENTER = 114.3093
MEAN_ANOMALY   = 245.8180

EPHEMERIS_TYPE = 0
CLASSIFICATION_TYPE = U
NORAD_CAT_ID   = 67149
ELEMENT_SET_NO = 999
REV_AT_EPOCH   = 422
BSTAR          = .92891E-3
MEAN_MOTION_DOT = .33463E-3
MEAN_MOTION_DDOT = 0

CCSDS_OMM_VERS = 2.0
CREATION_DATE  = 
ORIGINATOR     = 

OBJECT_NAME    = KUIPER-00245
OBJECT_ID      = 2025-301T
CENTER_NAME    = EARTH
REF_FRAME      = TEME
TIME_SYSTEM    = UTC
MEAN_ELEMENT_THEORY = SGP/SGP4

EPOCH          = 2026-01-04T20:00:01.999872
MEAN_MOTION    = 15.34495075
ECCENTRICITY   = .0006275
INCLINATION    = 51.8739
RA_OF_ASC_NODE = 13.7373
ARG_OF_PERICENTER = 150.1310
MEAN_ANOMALY   = 345.8169

EPHEMERIS_TYPE = 0
CLASSIFICATION_TYPE = U
NORAD_CAT_ID   = 67150
ELEMENT_SET_NO = 999
REV_AT_EPOCH   = 340
BSTAR          = -.13014E-1
MEAN_MOTION_DOT = -.418657E-2
MEAN_MOTION_DDOT = 0

CCSDS_OMM_VERS = 2.0
CREATION_DATE  = 
ORIGINATOR     = 

OBJECT_NAME    = KUIPER-00246
OBJECT_ID      = 2025-301U
CENTER_NAME    = EARTH
REF_FRAME      = TEME
TIME_SYSTEM    = UTC
MEAN_ELEMENT_THEORY = SGP/SGP4

EPOCH          = 2026-01-04T19:17:23.528256
MEAN_MOTION    = 15.36336661
ECCENTRICITY   = .0003996
INCLINATION    = 51.8741
RA_OF_ASC_NODE = 13.8291
ARG_OF_PERICENTER = 139.1857
MEAN_ANOMALY   = 220.9429

EPHEMERIS_TYPE = 0
CLASSIFICATION_TYPE = U
NORAD_CAT_ID   = 67151
ELEMENT_SET_NO = 999
REV_AT_EPOCH   = 393
BSTAR          = .47489E-3
MEAN_MOTION_DOT = .16741E-3
MEAN_MOTION_DDOT = 0

CCSDS_OMM_VERS = 2.0
CREATION_DATE  = 
ORIGINATOR     = 

OBJECT_NAME    = KUIPER-00247
OBJECT_ID      = 2025-301V
CENTER_NAME    = EARTH
REF_FRAME      = TEME
TIME_SYSTEM    = UTC
MEAN_ELEMENT_THEORY = SGP/SGP4

EPOCH          = 2026-01-04T10:30:25.689312
MEAN_MOTION    = 15.34242649
ECCENTRICITY   = .00114243
INCLINATION    = 51.8630
RA_OF_ASC_NODE = 15.8644
ARG_OF_PERICENTER = 181.0995
MEAN_ANOMALY   = 178.9967

EPHEMERIS_TYPE = 0
CLASSIFICATION_TYPE = U
NORAD_CAT_ID   = 67152
ELEMENT_SET_NO = 999
REV_AT_EPOCH   = 385
BSTAR          = .6203461E-4
MEAN_MOTION_DOT = .1708E-4
MEAN_MOTION_DDOT = 0

CCSDS_OMM_VERS = 2.0
CREATION_DATE  = 
ORIGINATOR     = 

OBJECT_NAME    = KUIPER-00248
OBJECT_ID      = 2025-301W
CENTER_NAME    = EARTH
REF_FRAME      = TEME
TIME_SYSTEM    = UTC
MEAN_ELEMENT_THEORY = SGP/SGP4

EPOCH          = 2026-01-04T19:40:25.146336
MEAN_MOTION    = 15.35236216
ECCENTRICITY   = .0008862
INCLINATION    = 51.8687
RA_OF_ASC_NODE = 13.9317
ARG_OF_PERICENTER = 169.9897
MEAN_ANOMALY   = 190.1266

EPHEMERIS_TYPE = 0
CLASSIFICATION_TYPE = U
NORAD_CAT_ID   = 67153
ELEMENT_SET_NO = 999
REV_AT_EPOCH   = 408
BSTAR          = .70134E-3
MEAN_MOTION_DOT = .24081E-3
MEAN_MOTION_DDOT = 0

CCSDS_OMM_VERS = 2.0
CREATION_DATE  = 
ORIGINATOR     = 

OBJECT_NAME    = KUIPER-00249
OBJECT_ID      = 2025-301X
CENTER_NAME    = EARTH
REF_FRAME      = TEME
TIME_SYSTEM    = UTC
MEAN_ELEMENT_THEORY = SGP/SGP4

EPOCH          = 2026-01-04T19:37:18.230304
MEAN_MOTION    = 15.35372568
ECCENTRICITY   = .0008368
INCLINATION    = 51.8665
RA_OF_ASC_NODE = 13.9157
ARG_OF_PERICENTER = 166.7861
MEAN_ANOMALY   = 193.3345

EPHEMERIS_TYPE = 0
CLASSIFICATION_TYPE = U
NORAD_CAT_ID   = 67154
ELEMENT_SET_NO = 999
REV_AT_EPOCH   = 391
BSTAR          = .75231E-3
MEAN_MOTION_DOT = .25976E-3
MEAN_MOTION_DDOT = 0

CCSDS_OMM_VERS = 2.0
CREATION_DATE  = 
ORIGINATOR     = 

OBJECT_NAME    = KUIPER-00250
OBJECT_ID      = 2025-301Y
CENTER_NAME    = EARTH
REF_FRAME      = TEME
TIME_SYSTEM    = UTC
MEAN_ELEMENT_THEORY = SGP/SGP4

EPOCH          = 2026-01-04T19:27:55.450080
MEAN_MOTION    = 15.35907543
ECCENTRICITY   = .0006545
INCLINATION    = 51.8725
RA_OF_ASC_NODE = 13.8777
ARG_OF_PERICENTER = 155.7970
MEAN_ANOMALY   = 204.3325

EPHEMERIS_TYPE = 0
CLASSIFICATION_TYPE = U
NORAD_CAT_ID   = 67155
ELEMENT_SET_NO = 999
REV_AT_EPOCH   = 394
BSTAR          = .59632E-3
MEAN_MOTION_DOT = .20846E-3
MEAN_MOTION_DDOT = 0

CCSDS_OMM_VERS = 2.0
CREATION_DATE  = 
ORIGINATOR     = 

OBJECT_NAME    = KUIPER-00251
OBJECT_ID      = 2025-301Z
CENTER_NAME    = EARTH
REF_FRAME      = TEME
TIME_SYSTEM    = UTC
MEAN_ELEMENT_THEORY = SGP/SGP4

EPOCH          = 2026-01-04T19:39:07.248960
MEAN_MOTION    = 15.35015007
ECCENTRICITY   = .0009052
INCLINATION    = 51.8676
RA_OF_ASC_NODE = 13.9248
ARG_OF_PERICENTER = 164.3987
MEAN_ANOMALY   = 195.7280

EPHEMERIS_TYPE = 0
CLASSIFICATION_TYPE = U
NORAD_CAT_ID   = 67156
ELEMENT_SET_NO = 999
REV_AT_EPOCH   = 410
BSTAR          = .76982E-3
MEAN_MOTION_DOT = .26291E-3
MEAN_MOTION_DDOT = 0

CCSDS_OMM_VERS = 2.0
CREATION_DATE  = 
ORIGINATOR     = 

OBJECT_NAME    = KUIPER-00252
OBJECT_ID      = 2025-301AA
CENTER_NAME    = EARTH
REF_FRAME      = TEME
TIME_SYSTEM    = UTC
MEAN_ELEMENT_THEORY = SGP/SGP4

EPOCH          = 2026-01-04T15:06:52.136640
MEAN_MOTION    = 15.34675323
ECCENTRICITY   = .0009926
INCLINATION    = 51.8664
RA_OF_ASC_NODE = 14.9057
ARG_OF_PERICENTER = 175.9914
MEAN_ANOMALY   = 184.1153

EPHEMERIS_TYPE = 0
CLASSIFICATION_TYPE = U
NORAD_CAT_ID   = 67157
ELEMENT_SET_NO = 999
REV_AT_EPOCH   = 388
BSTAR          = .7074E-3
MEAN_MOTION_DOT = .23863E-3
MEAN_MOTION_DDOT = 0

